[{"OBJECT_NAME":"STARLINK-3370","OBJECT_ID":"2022-005Z","EPOCH":"2026-03-09T21:16:56.693856","MEAN_MOTION":15.08843087,"ECCENTRICITY":0.00013346,"INCLINATION":53.217,"RA_OF_ASC_NODE":298.246,"ARG_OF_PERICENTER":101.8071,"MEAN_ANOMALY":258.3071,"EPHEMERIS_TYPE":0,"CLASSIFICATION_TYPE":"U","NORAD_CAT_ID":51127,"ELEMENT_SET_NO":999,"REV_AT_EPOCH":22876,"BSTAR":-2.1629991e-5,"MEAN_MOTION_DOT":-6.32e-6,"MEAN_MOTION_DDOT":0},{"OBJECT_NAME":"DISKSAT A","OBJECT_ID":"2025-305D","EPOCH":"2026-03-09T13:08:58.223040","MEAN_MOTION":15.07741062,"ECCENTRICITY":0.0004082,"INCLINATION":45.0023,"RA_OF_ASC_NODE":251.6019,"ARG_OF_PERICENTER":318.1929,"MEAN_ANOMALY":41.8634,"EPHEMERIS_TYPE":0,"CLASSIFICATION_TYPE":"U","NORAD_CAT_ID":67222,"ELEMENT_SET_NO":999,"REV_AT_EPOCH":1226,"BSTAR":0.00090452,"MEAN_MOTION_DOT":0.00013824,"MEAN_MOTION_DDOT":0}]
